0 SLOSHSAT
1 28544U 05005C   13282.92267826  .00001105  00000-0  59473-3 0  7278
2 28544 007.3011 012.7181 7172033 309.9173 054.8829 02.40445496 73714
0 SLOSHSAT
1 28544U 05005C   13286.19586866  .00001117  00000-0  61756-3 0  7280
2 28544 007.2997 011.3240 7171333 312.7054 008.1844 02.40457229 73793
0 SLOSHSAT
1 28544U 05005C   13289.98276105  .00001444  00000-0  66290-3 0  7294
2 28544 007.2972 009.6949 7170308 315.9462 046.3279 02.40472146 73882
0 SLOSHSAT
1 28544U 05005C   13294.58409115  .00001401  00000-0  71894-3 0  7306
2 28544 007.2945 007.7536 7169714 319.8331 069.7531 02.40486156 73998
